[{"OBJECT_NAME":"STARLINK-34220","OBJECT_ID":"2025-157AC","EPOCH":"2026-03-09T22:22:21.895104","MEAN_MOTION":15.30207695,"ECCENTRICITY":0.00014301,"INCLINATION":53.1591,"RA_OF_ASC_NODE":344.3347,"ARG_OF_PERICENTER":123.5259,"MEAN_ANOMALY":236.5878,"EPHEMERIS_TYPE":0,"CLASSIFICATION_TYPE":"U","NORAD_CAT_ID":64930,"ELEMENT_SET_NO":999,"REV_AT_EPOCH":3605,"BSTAR":0.00084052172,"MEAN_MOTION_DOT":0.00024623,"MEAN_MOTION_DDOT":0},{"OBJECT_NAME":"OBJECT P","OBJECT_ID":"2018-099P","EPOCH":"2026-03-09T16:35:55.790016","MEAN_MOTION":15.30834106,"ECCENTRICITY":0.00076856,"INCLINATION":97.4366,"RA_OF_ASC_NODE":131.9195,"ARG_OF_PERICENTER":276.7627,"MEAN_ANOMALY":83.2739,"EPHEMERIS_TYPE":0,"CLASSIFICATION_TYPE":"U","NORAD_CAT_ID":43771,"ELEMENT_SET_NO":999,"REV_AT_EPOCH":39830,"BSTAR":0.00063632878,"MEAN_MOTION_DOT":0.00018926,"MEAN_MOTION_DDOT":0}]
